{
  "type": "FeatureCollection",
  "features": [
    {
      "type": "Feature",
      "properties": {
        "norad_id": 32275,
        "name": "COSMOS 2433 (720)",
        "group": "glo-ops",
        "lat": 52.98309353064085,
        "lon": -1.0865106187982745,
        "alt_km": 19137.29672894244,
        "timestamp": "2025-12-16T10:53:45.730234+00:00",
        "meta_object_name": "COSMOS 2433 (720)",
        "meta_object_id": "2007-052A",
        "meta_epoch": "2025-12-14T23:11:38.718240",
        "meta_mean_motion": 2.13103955,
        "meta_eccentricity": 0.00054201,
        "meta_inclination": 65.6819,
        "meta_ra_of_asc_node": 322.1305,
        "meta_arg_of_pericenter": 253.5649,
        "meta_mean_anomaly": 106.3736,
        "meta_ephemeris_type": 0,
        "meta_classification_type": "U",
        "meta_norad_cat_id": 32275,
        "meta_element_set_no": 999,
        "meta_rev_at_epoch": 14113,
        "meta_bstar": 0,
        "meta_mean_motion_dot": -6.5e-07,
        "meta_mean_motion_ddot": 0,
        "tle_line1": "1 32275U 07052A   25348.96642035 -.00000065  00000+0  00000+0 0  9990",
        "tle_line2": "2 32275  65.6819 322.1305 0005420 253.5649 106.3736  2.13103955141132"
      },
      "geometry": {
        "type": "Point",
        "coordinates": [
          -1.0865106187982745,
          52.98309353064085
        ]
      }
    },
    {
      "type": "Feature",
      "properties": {
        "norad_id": 32276,
        "name": "COSMOS 2432 (719)",
        "group": "glo-ops",
        "lat": 5.215668190654142,
        "lon": -35.44348532185304,
        "alt_km": 19112.510847963902,
        "timestamp": "2025-12-16T10:53:45.730257+00:00",
        "meta_object_name": "COSMOS 2432 (719)",
        "meta_object_id": "2007-052B",
        "meta_epoch": "2025-12-15T06:31:38.583840",
        "meta_mean_motion": 2.13103103,
        "meta_eccentricity": 0.00112605,
        "meta_inclination": 65.6973,
        "meta_ra_of_asc_node": 322.2446,
        "meta_arg_of_pericenter": 312.4858,
        "meta_mean_anomaly": 226.3212,
        "meta_ephemeris_type": 0,
        "meta_classification_type": "U",
        "meta_norad_cat_id": 32276,
        "meta_element_set_no": 999,
        "meta_rev_at_epoch": 14116,
        "meta_bstar": 0,
        "meta_mean_motion_dot": -6.6e-07,
        "meta_mean_motion_ddot": 0,
        "tle_line1": "1 32276U 07052B   25349.27197435 -.00000066  00000+0  00000+0 0  9996",
        "tle_line2": "2 32276  65.6973 322.2446 0011260 312.4858 226.3212  2.13103103141167"
      },
      "geometry": {
        "type": "Point",
        "coordinates": [
          -35.44348532185304,
          5.215668190654142
        ]
      }
    },
    {
      "type": "Feature",
      "properties": {
        "norad_id": 32393,
        "name": "COSMOS 2434 (721)",
        "group": "glo-ops",
        "lat": -42.30642294492027,
        "lon": 172.10083644641716,
        "alt_km": 19140.735661538773,
        "timestamp": "2025-12-16T10:53:45.730272+00:00",
        "meta_object_name": "COSMOS 2434 (721)",
        "meta_object_id": "2007-065A",
        "meta_epoch": "2025-12-15T08:26:38.759136",
        "meta_mean_motion": 2.13101367,
        "meta_eccentricity": 0.00044341,
        "meta_inclination": 64.3148,
        "meta_ra_of_asc_node": 198.1152,
        "meta_arg_of_pericenter": 71.4602,
        "meta_mean_anomaly": 114.7825,
        "meta_ephemeris_type": 0,
        "meta_classification_type": "U",
        "meta_norad_cat_id": 32393,
        "meta_element_set_no": 999,
        "meta_rev_at_epoch": 13985,
        "meta_bstar": 0,
        "meta_mean_motion_dot": 1.05e-06,
        "meta_mean_motion_ddot": 0,
        "tle_line1": "1 32393U 07065A   25349.35183749  .00000105  00000+0  00000+0 0  9995",
        "tle_line2": "2 32393  64.3148 198.1152 0004434  71.4602 114.7825  2.13101367139858"
      },
      "geometry": {
        "type": "Point",
        "coordinates": [
          172.10083644641716,
          -42.30642294492027
        ]
      }
    },
    {
      "type": "Feature",
      "properties": {
        "norad_id": 32395,
        "name": "COSMOS 2436 (723)",
        "group": "glo-ops",
        "lat": 63.853963171831545,
        "lon": -83.2937829354346,
        "alt_km": 19112.133650454613,
        "timestamp": "2025-12-16T10:53:45.730285+00:00",
        "meta_object_name": "COSMOS 2436 (723)",
        "meta_object_id": "2007-065C",
        "meta_epoch": "2025-12-15T21:01:07.375584",
        "meta_mean_motion": 2.13100032,
        "meta_eccentricity": 0.00177255,
        "meta_inclination": 64.3235,
        "meta_ra_of_asc_node": 198.1677,
        "meta_arg_of_pericenter": 8.9323,
        "meta_mean_anomaly": 352.3192,
        "meta_ephemeris_type": 0,
        "meta_classification_type": "U",
        "meta_norad_cat_id": 32395,
        "meta_element_set_no": 999,
        "meta_rev_at_epoch": 13982,
        "meta_bstar": 0,
        "meta_mean_motion_dot": 1.08e-06,
        "meta_mean_motion_ddot": 0,
        "tle_line1": "1 32395U 07065C   25349.87577981  .00000108  00000+0  00000+0 0  9992",
        "tle_line2": "2 32395  64.3235 198.1677 0017725   8.9323 352.3192  2.13100032139823"
      },
      "geometry": {
        "type": "Point",
        "coordinates": [
          -83.2937829354346,
          63.853963171831545
        ]
      }
    },
    {
      "type": "Feature",
      "properties": {
        "norad_id": 36111,
        "name": "COSMOS 2456 (730)",
        "group": "glo-ops",
        "lat": 58.96654314986529,
        "lon": -153.8322443721873,
        "alt_km": 19131.116402772885,
        "timestamp": "2025-12-16T10:53:45.730297+00:00",
        "meta_object_name": "COSMOS 2456 (730)",
        "meta_object_id": "2009-070A",
        "meta_epoch": "2025-12-14T09:56:44.941056",
        "meta_mean_motion": 2.13103612,
        "meta_eccentricity": 0.00031175,
        "meta_inclination": 64.9016,
        "meta_ra_of_asc_node": 77.2804,
        "meta_arg_of_pericenter": 298.1789,
        "meta_mean_anomaly": 45.9889,
        "meta_ephemeris_type": 0,
        "meta_classification_type": "U",
        "meta_norad_cat_id": 36111,
        "meta_element_set_no": 999,
        "meta_rev_at_epoch": 12448,
        "meta_bstar": 0,
        "meta_mean_motion_dot": -5.7e-07,
        "meta_mean_motion_ddot": 0,
        "tle_line1": "1 36111U 09070A   25348.41440904 -.00000057  00000+0  00000+0 0  9997",
        "tle_line2": "2 36111  64.9016  77.2804 0003117 298.1789  45.9889  2.13103612124485"
      },
      "geometry": {
        "type": "Point",
        "coordinates": [
          -153.8322443721873,
          58.96654314986529
        ]
      }
    },
    {
      "type": "Feature",
      "properties": {
        "norad_id": 36112,
        "name": "COSMOS 2457 (733)",
        "group": "glo-ops",
        "lat": -50.22852915151693,
        "lon": -68.70263309118987,
        "alt_km": 19133.43612054672,
        "timestamp": "2025-12-16T10:53:45.730308+00:00",
        "meta_object_name": "COSMOS 2457 (733)",
        "meta_object_id": "2009-070B",
        "meta_epoch": "2025-12-15T22:24:14.107104",
        "meta_mean_motion": 2.13100894,
        "meta_eccentricity": 0.00046417,
        "meta_inclination": 64.8877,
        "meta_ra_of_asc_node": 77.076,
        "meta_arg_of_pericenter": 159.3644,
        "meta_mean_anomaly": 39.3126,
        "meta_ephemeris_type": 0,
        "meta_classification_type": "U",
        "meta_norad_cat_id": 36112,
        "meta_element_set_no": 999,
        "meta_rev_at_epoch": 12452,
        "meta_bstar": 0,
        "meta_mean_motion_dot": -5.8e-07,
        "meta_mean_motion_ddot": 0,
        "tle_line1": "1 36112U 09070B   25349.93349661 -.00000058  00000+0  00000+0 0  9995",
        "tle_line2": "2 36112  64.8877  77.0760 0004641 159.3644  39.3126  2.13100894124525"
      },
      "geometry": {
        "type": "Point",
        "coordinates": [
          -68.70263309118987,
          -50.22852915151693
        ]
      }
    },
    {
      "type": "Feature",
      "properties": {
        "norad_id": 36402,
        "name": "COSMOS 2460 (732)",
        "group": "glo-ops",
        "lat": -50.18138114803719,
        "lon": 173.7404802399346,
        "alt_km": 19129.986073907246,
        "timestamp": "2025-12-16T10:53:45.730320+00:00",
        "meta_object_name": "COSMOS 2460 (732)",
        "meta_object_id": "2010-007C",
        "meta_epoch": "2025-12-15T05:47:00.728160",
        "meta_mean_motion": 2.13106127,
        "meta_eccentricity": 0.00026664,
        "meta_inclination": 65.5278,
        "meta_ra_of_asc_node": 320.6882,
        "meta_arg_of_pericenter": 275.3459,
        "meta_mean_anomaly": 111.58,
        "meta_ephemeris_type": 0,
        "meta_classification_type": "U",
        "meta_norad_cat_id": 36402,
        "meta_element_set_no": 999,
        "meta_rev_at_epoch": 12281,
        "meta_bstar": 0,
        "meta_mean_motion_dot": -6.7e-07,
        "meta_mean_motion_ddot": 0,
        "tle_line1": "1 36402U 10007C   25349.24098065 -.00000067  00000+0  00000+0 0  9992",
        "tle_line2": "2 36402  65.5278 320.6882 0002666 275.3459 111.5800  2.13106127122817"
      },
      "geometry": {
        "type": "Point",
        "coordinates": [
          173.7404802399346,
          -50.18138114803719
        ]
      }
    }
  ]
}